start=new Date('2021-09-18T00:00:00.000Z').valueOf();
sats=[{"CENTER_NAME":"EARTH","GP_ID":"184912716","REF_FRAME":"TEME","TLE_LINE2":"2 47987  53.0461  41.5056 0008079 287.3075 227.1291 15.76742607  3689","SITE":"AFETR","EPOCH":"2021-09-18T00:00:00.999648","OBJECT_NAME":"STARLINK-2311","RA_OF_ASC_NODE":"41.5056","TIME_SYSTEM":"UTC","ARG_OF_PERICENTER":"287.3075","SEMIMAJOR_AXIS":"6717.814","EPHEMERIS_TYPE":"0","MEAN_MOTION_DDOT":"0.0000000000000","ELEMENT_SET_NO":"999","MEAN_ANOMALY":"227.1291","ECCENTRICITY":"0.00080790","REV_AT_EPOCH":"368","PERIAPSIS":"334.252","MEAN_ELEMENT_THEORY":"SGP4","FILE":"3118116","BSTAR":"-0.00013122000000","OBJECT_ID":"2021-024L","LAUNCH_DATE":"2021-03-24","MEAN_MOTION_DOT":"-0.00022152","RCS_SIZE":"LARGE","PERIOD":"91.328","INCLINATION":"53.0461","APOAPSIS":"345.106","NORAD_CAT_ID":"47987","DECAY_DATE":null,"OBJECT_TYPE":"PAYLOAD","TLE_LINE1":"1 47987U 21024L   21261.00001157 -.00022152  00000-0 -13122-3 0  9996","COUNTRY_CODE":"US","CLASSIFICATION_TYPE":"U","MEAN_MOTION":"15.76742607"},{"ELEMENT_SET_NO":"999","ECCENTRICITY":"0.00020680","MEAN_ANOMALY":"278.4593","REV_AT_EPOCH":"358","MEAN_ELEMENT_THEORY":"SGP4","PERIAPSIS":"545.972","SEMIMAJOR_AXIS":"6925.540","MEAN_MOTION_DDOT":"0.0000000000000","EPHEMERIS_TYPE":"0","OBJECT_NAME":"STARLINK-2306","EPOCH":"2021-09-18T00:00:00.999648","RA_OF_ASC_NODE":"85.5260","TIME_SYSTEM":"UTC","ARG_OF_PERICENTER":"89.7546","GP_ID":"184912967","CENTER_NAME":"EARTH","TLE_LINE2":"2 47988  53.0555  85.5260 0002068  89.7546 278.4593 15.06337674  3588","REF_FRAME":"TEME","SITE":"AFETR","COUNTRY_CODE":"US","CLASSIFICATION_TYPE":"U","MEAN_MOTION":"15.06337674","DECAY_DATE":null,"NORAD_CAT_ID":"47988","TLE_LINE1":"1 47988U 21024M   21261.00001157  .00033656  00000-0  22714-2 0  9992","OBJECT_TYPE":"PAYLOAD","RCS_SIZE":"LARGE","PERIOD":"95.596","INCLINATION":"53.0555","APOAPSIS":"548.837","BSTAR":"0.00227140000000","FILE":"3118116","OBJECT_ID":"2021-024M","LAUNCH_DATE":"2021-03-24","MEAN_MOTION_DOT":"0.00033656"},{"TIME_SYSTEM":"UTC","RA_OF_ASC_NODE":"41.6666","EPOCH":"2021-09-18T00:00:00.999648","OBJECT_NAME":"STARLINK-2305","ARG_OF_PERICENTER":"356.9030","CENTER_NAME":"EARTH","GP_ID":"184911715","SITE":"AFETR","REF_FRAME":"TEME","TLE_LINE2":"2 47989  53.0462  41.6666 0004603 356.9030  78.0886 15.73203190  3682","ECCENTRICITY":"0.00046030","MEAN_ANOMALY":"78.0886","ELEMENT_SET_NO":"999","PERIAPSIS":"346.654","MEAN_ELEMENT_THEORY":"SGP4","REV_AT_EPOCH":"368","SEMIMAJOR_AXIS":"6727.886","EPHEMERIS_TYPE":"0","MEAN_MOTION_DDOT":"0.0000000000000","INCLINATION":"53.0462","RCS_SIZE":"LARGE","PERIOD":"91.533","APOAPSIS":"352.848","LAUNCH_DATE":"2021-03-24","FILE":"3118116","BSTAR":"0.00004015200000","OBJECT_ID":"2021-024N","MEAN_MOTION_DOT":"0.00005017","COUNTRY_CODE":"US","MEAN_MOTION":"15.73203190","CLASSIFICATION_TYPE":"U","OBJECT_TYPE":"PAYLOAD","TLE_LINE1":"1 47989U 21024N   21261.00001157  .00005017  00000-0  40152-4 0  9991","NORAD_CAT_ID":"47989","DECAY_DATE":null},{"MEAN_MOTION_DOT":"-0.00007849","BSTAR":"-0.00005137400000","FILE":"3118116","OBJECT_ID":"2021-024P","LAUNCH_DATE":"2021-03-24","APOAPSIS":"352.773","RCS_SIZE":"LARGE","PERIOD":"91.531","INCLINATION":"53.0464","NORAD_CAT_ID":"47990","DECAY_DATE":null,"OBJECT_TYPE":"PAYLOAD","TLE_LINE1":"1 47990U 21024P   21261.00001157 -.00007849  00000-0 -51374-4 0  9998","CLASSIFICATION_TYPE":"U","MEAN_MOTION":"15.73240633","COUNTRY_CODE":"US","REF_FRAME":"TEME","TLE_LINE2":"2 47990  53.0464  41.6686 0004650   2.8456  72.8404 15.73240633  3680","SITE":"AFETR","CENTER_NAME":"EARTH","GP_ID":"184911965","ARG_OF_PERICENTER":"2.8456","EPOCH":"2021-09-18T00:00:00.999648","OBJECT_NAME":"STARLINK-2307","RA_OF_ASC_NODE":"41.6686","TIME_SYSTEM":"UTC","EPHEMERIS_TYPE":"0","MEAN_MOTION_DDOT":"0.0000000000000","SEMIMAJOR_AXIS":"6727.779","REV_AT_EPOCH":"368","PERIAPSIS":"346.516","MEAN_ELEMENT_THEORY":"SGP4","ELEMENT_SET_NO":"999","MEAN_ANOMALY":"72.8404","ECCENTRICITY":"0.00046500"},{"COUNTRY_CODE":"US","CLASSIFICATION_TYPE":"U","MEAN_MOTION":"15.64660217","DECAY_DATE":null,"NORAD_CAT_ID":"47991","TLE_LINE1":"1 47991U 21024Q   21261.00001157 -.00935551  00000-0 -10433-1 0  9997","OBJECT_TYPE":"PAYLOAD","PERIOD":"92.033","RCS_SIZE":"MEDIUM","INCLINATION":"53.0458","APOAPSIS":"375.037","FILE":"3118116","OBJECT_ID":"2021-024Q","BSTAR":"-0.01043300000000","LAUNCH_DATE":"2021-03-24","MEAN_MOTION_DOT":"-0.00935551","ELEMENT_SET_NO":"999","MEAN_ANOMALY":"323.0166","ECCENTRICITY":"0.00012120","REV_AT_EPOCH":"367","MEAN_ELEMENT_THEORY":"SGP4","PERIAPSIS":"373.400","SEMIMAJOR_AXIS":"6752.353","EPHEMERIS_TYPE":"0","MEAN_MOTION_DDOT":"0.0000000000000","OBJECT_NAME":"STARLINK-2279","EPOCH":"2021-09-18T00:00:00.999648","RA_OF_ASC_NODE":"41.7746","TIME_SYSTEM":"UTC","ARG_OF_PERICENTER":"49.8456","GP_ID":"184913216","CENTER_NAME":"EARTH","TLE_LINE2":"2 47991  53.0458  41.7746 0001212  49.8456 323.0166 15.64660217  3673","REF_FRAME":"TEME","SITE":"AFETR"},{"MEAN_ELEMENT_THEORY":"SGP4","PERIAPSIS":"346.426","REV_AT_EPOCH":"367","MEAN_ANOMALY":"75.0526","ECCENTRICITY":"0.00046380","ELEMENT_SET_NO":"999","EPHEMERIS_TYPE":"0","MEAN_MOTION_DDOT":"0.0000000000000","SEMIMAJOR_AXIS":"6727.681","ARG_OF_PERICENTER":"1.9219","TIME_SYSTEM":"UTC","RA_OF_ASC_NODE":"41.6678","OBJECT_NAME":"STARLINK-2229","EPOCH":"2021-09-18T00:00:00.999648","SITE":"AFETR","TLE_LINE2":"2 47992  53.0466  41.6678 0004638   1.9219  75.0526 15.73275111  3676","REF_FRAME":"TEME","GP_ID":"184913467","CENTER_NAME":"EARTH","MEAN_MOTION":"15.73275111","CLASSIFICATION_TYPE":"U","COUNTRY_CODE":"US","TLE_LINE1":"1 47992U 21024R   21261.00001157 -.00098684  00000-0 -70400-3 0  9997","OBJECT_TYPE":"PAYLOAD","DECAY_DATE":null,"NORAD_CAT_ID":"47992","APOAPSIS":"352.666","INCLINATION":"53.0466","PERIOD":"91.529","RCS_SIZE":"LARGE","MEAN_MOTION_DOT":"-0.00098684","LAUNCH_DATE":"2021-03-24","FILE":"3118116","BSTAR":"-0.00070400000000","OBJECT_ID":"2021-024R"},{"EPOCH":"2021-09-18T00:00:00.999648","OBJECT_NAME":"STARLINK-2273","RA_OF_ASC_NODE":"70.5283","TIME_SYSTEM":"UTC","ARG_OF_PERICENTER":"106.7982","CENTER_NAME":"EARTH","GP_ID":"184912215","REF_FRAME":"TEME","TLE_LINE2":"2 47993  53.0542  70.5283 0001793 106.7982 243.8626 15.06385439  3560","SITE":"AFETR","ELEMENT_SET_NO":"999","MEAN_ANOMALY":"243.8626","ECCENTRICITY":"0.00017930","REV_AT_EPOCH":"356","PERIAPSIS":"546.016","MEAN_ELEMENT_THEORY":"SGP4","SEMIMAJOR_AXIS":"6925.393","MEAN_MOTION_DDOT":"0.0000000000000","EPHEMERIS_TYPE":"0","RCS_SIZE":"LARGE","PERIOD":"95.593","INCLINATION":"53.0542","APOAPSIS":"548.500","OBJECT_ID":"2021-024S","FILE":"3118116","BSTAR":"0.00070024000000","LAUNCH_DATE":"2021-03-24","MEAN_MOTION_DOT":"0.00010160","COUNTRY_CODE":"US","CLASSIFICATION_TYPE":"U","MEAN_MOTION":"15.06385439","NORAD_CAT_ID":"47993","DECAY_DATE":null,"OBJECT_TYPE":"PAYLOAD","TLE_LINE1":"1 47993U 21024S   21261.00001157  .00010160  00000-0  70024-3 0  9991"},{"REV_AT_EPOCH":"357","MEAN_ELEMENT_THEORY":"SGP4","PERIAPSIS":"553.198","ELEMENT_SET_NO":"999","ECCENTRICITY":"0.00022390","MEAN_ANOMALY":"289.2748","EPHEMERIS_TYPE":"0","MEAN_MOTION_DDOT":"0.0000000000000","SEMIMAJOR_AXIS":"6932.885","ARG_OF_PERICENTER":"87.7338","OBJECT_NAME":"STARLINK-2290","EPOCH":"2021-09-18T00:00:00.999648","RA_OF_ASC_NODE":"85.4338","TIME_SYSTEM":"UTC","TLE_LINE2":"2 47994  53.0538  85.4338 0002239  87.7338 289.2748 15.03944397  3572","REF_FRAME":"TEME","SITE":"AFETR","GP_ID":"184912465","CENTER_NAME":"EARTH","CLASSIFICATION_TYPE":"U","MEAN_MOTION":"15.03944397","COUNTRY_CODE":"US","DECAY_DATE":null,"NORAD_CAT_ID":"47994","TLE_LINE1":"1 47994U 21024T   21261.00001157  .00033474  00000-0  24086-2 0  9991","OBJECT_TYPE":"PAYLOAD","APOAPSIS":"556.302","RCS_SIZE":"LARGE","PERIOD":"95.748","INCLINATION":"53.0538","MEAN_MOTION_DOT":"0.00033474","FILE":"3118116","BSTAR":"0.00240860000000","OBJECT_ID":"2021-024T","LAUNCH_DATE":"2021-03-24"},{"MEAN_MOTION_DDOT":"0.0000000000000","EPHEMERIS_TYPE":"0","SEMIMAJOR_AXIS":"6927.873","REV_AT_EPOCH":"363","PERIAPSIS":"548.787","MEAN_ELEMENT_THEORY":"SGP4","ELEMENT_SET_NO":"999","ECCENTRICITY":"0.00013730","MEAN_ANOMALY":"60.0688","REF_FRAME":"TEME","TLE_LINE2":"2 47995  53.0436  50.4582 0001373 104.3900  60.0688 15.05576603  3630","SITE":"AFETR","CENTER_NAME":"EARTH","GP_ID":"184912717","ARG_OF_PERICENTER":"104.3900","EPOCH":"2021-09-17T22:00:00.999936","OBJECT_NAME":"STARLINK-2309","TIME_SYSTEM":"UTC","RA_OF_ASC_NODE":"50.4582","NORAD_CAT_ID":"47995","DECAY_DATE":null,"OBJECT_TYPE":"PAYLOAD","TLE_LINE1":"1 47995U 21024U   21260.91667824  .00003600  00000-0  26614-3 0  9998","CLASSIFICATION_TYPE":"U","MEAN_MOTION":"15.05576603","COUNTRY_CODE":"US","MEAN_MOTION_DOT":"0.00003600","FILE":"3118116","BSTAR":"0.00026614000000","OBJECT_ID":"2021-024U","LAUNCH_DATE":"2021-03-24","APOAPSIS":"550.689","PERIOD":"95.644","RCS_SIZE":"MEDIUM","INCLINATION":"53.0436"},{"ARG_OF_PERICENTER":"1.5296","RA_OF_ASC_NODE":"42.0758","TIME_SYSTEM":"UTC","EPOCH":"2021-09-17T22:00:00.999936","OBJECT_NAME":"STARLINK-2260","SITE":"AFETR","REF_FRAME":"TEME","TLE_LINE2":"2 47996  53.0464  42.0758 0004854   1.5296 325.7778 15.73238946  3717","CENTER_NAME":"EARTH","GP_ID":"184912968","PERIAPSIS":"346.383","MEAN_ELEMENT_THEORY":"SGP4","REV_AT_EPOCH":"371","ECCENTRICITY":"0.00048540","MEAN_ANOMALY":"325.7778","ELEMENT_SET_NO":"999","MEAN_MOTION_DDOT":"0.0000000000000","EPHEMERIS_TYPE":"0","SEMIMAJOR_AXIS":"6727.784","APOAPSIS":"352.915","INCLINATION":"53.0464","PERIOD":"91.531","RCS_SIZE":"LARGE","MEAN_MOTION_DOT":"-0.00049126","LAUNCH_DATE":"2021-03-24","BSTAR":"-0.00034669000000","FILE":"3118116","OBJECT_ID":"2021-024V","MEAN_MOTION":"15.73238946","CLASSIFICATION_TYPE":"U","COUNTRY_CODE":"US","OBJECT_TYPE":"PAYLOAD","TLE_LINE1":"1 47996U 21024V   21260.91667824 -.00049126  00000-0 -34669-3 0  9993","NORAD_CAT_ID":"47996","DECAY_DATE":null}];
